STARLINK-37148          
1 68310U 26057S   26090.83335647 -.01413702  59570-3 -34976-2 0  9994
2 68310  97.2760 214.2282 0001381  84.7004 164.8544 15.96015992  2829
STARLINK-37140          
1 68311U 26057T   26090.83335647 -.01408619  59117-3 -35021-2 0  9995
2 68311  97.2764 214.2273 0001327  83.0828 162.9291 15.95924235  2972
STARLINK-36854          
1 68312U 26057U   26090.83335647 -.01404310  58894-3 -34578-2 0  9997
2 68312  97.2761 214.2304 0001435  84.6692 168.3333 15.96103447  2771
STARLINK-36815          
1 68313U 26057V   26090.83335647 -.01402420  58801-3 -34371-2 0  9997
2 68313  97.2762 214.2324 0001360  82.2766 174.7784 15.96189367  2774
STARLINK-37155          
1 68314U 26057W   26090.83335647 -.01423773  60593-3 -34540-2 0  9991
2 68314  97.2756 214.2356 0001416  80.0170 185.4650 15.96381722  2826
STARLINK-37150          
1 68315U 26057X   26090.50002315 -.01508059  68032-3 -34931-2 0  9990
2 68315  97.2756 213.8740 0001423  75.3830  71.3696 15.97245182  2763
STARLINK-37154          
1 68316U 26057Y   26090.58335648 -.01461515  64213-3 -33784-2 0  9994
2 68316  97.2749 213.9690 0001350  74.1422 203.6921 15.97276477  2687
STARLINK-37139          
1 68317U 26057Z   26090.58335648 -.01454146  63543-3 -33803-2 0  9994
2 68317  97.2750 213.9671 0001346  75.3900 198.2827 15.97172444  2535
STARLINK-37113          
1 68318U 26057AA  26090.50002315 -.01519226  69267-3 -34434-2 0  9990
2 68318  97.2748 213.8809 0001539  65.7433  97.5267 15.97643016  2765
PROGRESS-MS 33          
1 68319U 26058A   26090.84291376  .00010633  00000+0  20301-3 0  9996
2 68319  51.6336 322.8401 0006220 256.5772 103.4524 15.48686199  1239
STARLINK-36987          
1 68321U 26059A   26090.66668981 -.00004428  00000+0 -18904-4 0  9994
2 68321  53.1595 252.7517 0001042  72.0526 136.5845 15.80874983  2577
STARLINK-37088          
1 68322U 26059B   26090.66668981 -.00012814  00000+0 -61445-4 0  9991
2 68322  53.1594 252.7340 0001408  52.3237 164.8518 15.80882011  2579
STARLINK-36983          
1 68323U 26059C   26090.66668981 -.00004857  00000+0 -21081-4 0  9992
2 68323  53.1605 252.7431 0000868  69.1247 143.7659 15.80877302  2579
STARLINK-37164          
1 68324U 26059D   26090.66668981 -.00016237  00000+0 -78845-4 0  9998
2 68324  53.1594 252.7255 0001078  31.2670 190.1792 15.80881704  2570
STARLINK-36309          
1 68325U 26059E   26090.66668981  .00036060  00000+0  18561-3 0  9991
2 68325  53.1595 252.7165 0000548  25.9035 199.8113 15.80856855  2570
STARLINK-37206          
1 68326U 26059F   26090.66668981 -.00006886  00000+0 -31363-4 0  9993
2 68326  53.1597 252.7078 0001824  25.1701 204.8176 15.80874459  2572
