[{"OBJECT_NAME":"STARLINK-37148","OBJECT_ID":"2026-057S","EPOCH":"2026-03-31T20:00:01.999008","MEAN_MOTION":15.96015992,"ECCENTRICITY":0.0001381,"INCLINATION":97.276,"RA_OF_ASC_NODE":214.2282,"ARG_OF_PERICENTER":84.7004,"MEAN_ANOMALY":164.8544,"EPHEMERIS_TYPE":0,"CLASSIFICATION_TYPE":"U","NORAD_CAT_ID":68310,"ELEMENT_SET_NO":999,"REV_AT_EPOCH":282,"BSTAR":-0.0034976,"MEAN_MOTION_DOT":-0.01413702,"MEAN_MOTION_DDOT":0.0005957},{"OBJECT_NAME":"STARLINK-37140","OBJECT_ID":"2026-057T","EPOCH":"2026-03-31T20:00:01.999008","MEAN_MOTION":15.95924235,"ECCENTRICITY":0.0001327,"INCLINATION":97.2764,"RA_OF_ASC_NODE":214.2273,"ARG_OF_PERICENTER":83.0828,"MEAN_ANOMALY":162.9291,"EPHEMERIS_TYPE":0,"CLASSIFICATION_TYPE":"U","NORAD_CAT_ID":68311,"ELEMENT_SET_NO":999,"REV_AT_EPOCH":297,"BSTAR":-0.0035021,"MEAN_MOTION_DOT":-0.01408619,"MEAN_MOTION_DDOT":0.00059117},{"OBJECT_NAME":"STARLINK-36854","OBJECT_ID":"2026-057U","EPOCH":"2026-03-31T20:00:01.999008","MEAN_MOTION":15.96103447,"ECCENTRICITY":0.0001435,"INCLINATION":97.2761,"RA_OF_ASC_NODE":214.2304,"ARG_OF_PERICENTER":84.6692,"MEAN_ANOMALY":168.3333,"EPHEMERIS_TYPE":0,"CLASSIFICATION_TYPE":"U","NORAD_CAT_ID":68312,"ELEMENT_SET_NO":999,"REV_AT_EPOCH":277,"BSTAR":-0.0034578,"MEAN_MOTION_DOT":-0.0140431,"MEAN_MOTION_DDOT":0.00058894},{"OBJECT_NAME":"STARLINK-36815","OBJECT_ID":"2026-057V","EPOCH":"2026-03-31T20:00:01.999008","MEAN_MOTION":15.96189367,"ECCENTRICITY":0.000136,"INCLINATION":97.2762,"RA_OF_ASC_NODE":214.2324,"ARG_OF_PERICENTER":82.2766,"MEAN_ANOMALY":174.7784,"EPHEMERIS_TYPE":0,"CLASSIFICATION_TYPE":"U","NORAD_CAT_ID":68313,"ELEMENT_SET_NO":999,"REV_AT_EPOCH":277,"BSTAR":-0.0034371,"MEAN_MOTION_DOT":-0.0140242,"MEAN_MOTION_DDOT":0.00058801},{"OBJECT_NAME":"STARLINK-37155","OBJECT_ID":"2026-057W","EPOCH":"2026-03-31T20:00:01.999008","MEAN_MOTION":15.96381722,"ECCENTRICITY":0.0001416,"INCLINATION":97.2756,"RA_OF_ASC_NODE":214.2356,"ARG_OF_PERICENTER":80.017,"MEAN_ANOMALY":185.465,"EPHEMERIS_TYPE":0,"CLASSIFICATION_TYPE":"U","NORAD_CAT_ID":68314,"ELEMENT_SET_NO":999,"REV_AT_EPOCH":282,"BSTAR":-0.003454,"MEAN_MOTION_DOT":-0.01423773,"MEAN_MOTION_DDOT":0.00060593},{"OBJECT_NAME":"STARLINK-37150","OBJECT_ID":"2026-057X","EPOCH":"2026-03-31T12:00:02.000160","MEAN_MOTION":15.97245182,"ECCENTRICITY":0.00014236,"INCLINATION":97.2756,"RA_OF_ASC_NODE":213.874,"ARG_OF_PERICENTER":75.383,"MEAN_ANOMALY":71.3696,"EPHEMERIS_TYPE":0,"CLASSIFICATION_TYPE":"U","NORAD_CAT_ID":68315,"ELEMENT_SET_NO":999,"REV_AT_EPOCH":276,"BSTAR":-0.0034931171,"MEAN_MOTION_DOT":-0.01508059,"MEAN_MOTION_DDOT":0.00068031845},{"OBJECT_NAME":"STARLINK-37154","OBJECT_ID":"2026-057Y","EPOCH":"2026-03-31T14:00:01.999872","MEAN_MOTION":15.97276477,"ECCENTRICITY":0.00013503,"INCLINATION":97.2749,"RA_OF_ASC_NODE":213.969,"ARG_OF_PERICENTER":74.1422,"MEAN_ANOMALY":203.6921,"EPHEMERIS_TYPE":0,"CLASSIFICATION_TYPE":"U","NORAD_CAT_ID":68316,"ELEMENT_SET_NO":999,"REV_AT_EPOCH":268,"BSTAR":-0.0033783586,"MEAN_MOTION_DOT":-0.01461515,"MEAN_MOTION_DDOT":0.00064212558},{"OBJECT_NAME":"STARLINK-37139","OBJECT_ID":"2026-057Z","EPOCH":"2026-03-31T14:00:01.999872","MEAN_MOTION":15.97172444,"ECCENTRICITY":0.00013469,"INCLINATION":97.275,"RA_OF_ASC_NODE":213.9671,"ARG_OF_PERICENTER":75.39,"MEAN_ANOMALY":198.2827,"EPHEMERIS_TYPE":0,"CLASSIFICATION_TYPE":"U","NORAD_CAT_ID":68317,"ELEMENT_SET_NO":999,"REV_AT_EPOCH":253,"BSTAR":-0.0033802725,"MEAN_MOTION_DOT":-0.01454146,"MEAN_MOTION_DDOT":0.00063542776},{"OBJECT_NAME":"STARLINK-37113","OBJECT_ID":"2026-057AA","EPOCH":"2026-03-31T12:00:02.000160","MEAN_MOTION":15.97643016,"ECCENTRICITY":0.00015392,"INCLINATION":97.2748,"RA_OF_ASC_NODE":213.8809,"ARG_OF_PERICENTER":65.7433,"MEAN_ANOMALY":97.5267,"EPHEMERIS_TYPE":0,"CLASSIFICATION_TYPE":"U","NORAD_CAT_ID":68318,"ELEMENT_SET_NO":999,"REV_AT_EPOCH":276,"BSTAR":-0.0034434318,"MEAN_MOTION_DOT":-0.01519226,"MEAN_MOTION_DDOT":0.00069266914},{"OBJECT_NAME":"PROGRESS-MS 33","OBJECT_ID":"2026-058A","EPOCH":"2026-03-31T20:13:47.748864","MEAN_MOTION":15.48686199,"ECCENTRICITY":0.000622,"INCLINATION":51.6336,"RA_OF_ASC_NODE":322.8401,"ARG_OF_PERICENTER":256.5772,"MEAN_ANOMALY":103.4524,"EPHEMERIS_TYPE":0,"CLASSIFICATION_TYPE":"U","NORAD_CAT_ID":68319,"ELEMENT_SET_NO":999,"REV_AT_EPOCH":123,"BSTAR":0.00020301,"MEAN_MOTION_DOT":0.00010633,"MEAN_MOTION_DDOT":0},{"OBJECT_NAME":"STARLINK-36987","OBJECT_ID":"2026-059A","EPOCH":"2026-03-31T16:00:01.999584","MEAN_MOTION":15.80874983,"ECCENTRICITY":0.0001042,"INCLINATION":53.1595,"RA_OF_ASC_NODE":252.7517,"ARG_OF_PERICENTER":72.0526,"MEAN_ANOMALY":136.5845,"EPHEMERIS_TYPE":0,"CLASSIFICATION_TYPE":"U","NORAD_CAT_ID":68321,"ELEMENT_SET_NO":999,"REV_AT_EPOCH":257,"BSTAR":-1.8904e-5,"MEAN_MOTION_DOT":-4.428e-5,"MEAN_MOTION_DDOT":0},{"OBJECT_NAME":"STARLINK-37088","OBJECT_ID":"2026-059B","EPOCH":"2026-03-31T16:00:01.999584","MEAN_MOTION":15.80882011,"ECCENTRICITY":0.0001408,"INCLINATION":53.1594,"RA_OF_ASC_NODE":252.734,"ARG_OF_PERICENTER":52.3237,"MEAN_ANOMALY":164.8518,"EPHEMERIS_TYPE":0,"CLASSIFICATION_TYPE":"U","NORAD_CAT_ID":68322,"ELEMENT_SET_NO":999,"REV_AT_EPOCH":257,"BSTAR":-6.1445e-5,"MEAN_MOTION_DOT":-0.00012814,"MEAN_MOTION_DDOT":0},{"OBJECT_NAME":"STARLINK-36983","OBJECT_ID":"2026-059C","EPOCH":"2026-03-31T16:00:01.999584","MEAN_MOTION":15.80877302,"ECCENTRICITY":8.68e-5,"INCLINATION":53.1605,"RA_OF_ASC_NODE":252.7431,"ARG_OF_PERICENTER":69.1247,"MEAN_ANOMALY":143.7659,"EPHEMERIS_TYPE":0,"CLASSIFICATION_TYPE":"U","NORAD_CAT_ID":68323,"ELEMENT_SET_NO":999,"REV_AT_EPOCH":257,"BSTAR":-2.1081e-5,"MEAN_MOTION_DOT":-4.857e-5,"MEAN_MOTION_DDOT":0},{"OBJECT_NAME":"STARLINK-37164","OBJECT_ID":"2026-059D","EPOCH":"2026-03-31T16:00:01.999584","MEAN_MOTION":15.80881704,"ECCENTRICITY":0.0001078,"INCLINATION":53.1594,"RA_OF_ASC_NODE":252.7255,"ARG_OF_PERICENTER":31.267,"MEAN_ANOMALY":190.1792,"EPHEMERIS_TYPE":0,"CLASSIFICATION_TYPE":"U","NORAD_CAT_ID":68324,"ELEMENT_SET_NO":999,"REV_AT_EPOCH":257,"BSTAR":-7.8845e-5,"MEAN_MOTION_DOT":-0.00016237,"MEAN_MOTION_DDOT":0},{"OBJECT_NAME":"STARLINK-36309","OBJECT_ID":"2026-059E","EPOCH":"2026-03-31T16:00:01.999584","MEAN_MOTION":15.80856855,"ECCENTRICITY":5.48e-5,"INCLINATION":53.1595,"RA_OF_ASC_NODE":252.7165,"ARG_OF_PERICENTER":25.9035,"MEAN_ANOMALY":199.8113,"EPHEMERIS_TYPE":0,"CLASSIFICATION_TYPE":"U","NORAD_CAT_ID":68325,"ELEMENT_SET_NO":999,"REV_AT_EPOCH":257,"BSTAR":0.00018561,"MEAN_MOTION_DOT":0.0003606,"MEAN_MOTION_DDOT":0},{"OBJECT_NAME":"STARLINK-37206","OBJECT_ID":"2026-059F","EPOCH":"2026-03-31T16:00:01.999584","MEAN_MOTION":15.80874459,"ECCENTRICITY":0.0001824,"INCLINATION":53.1597,"RA_OF_ASC_NODE":252.7078,"ARG_OF_PERICENTER":25.1701,"MEAN_ANOMALY":204.8176,"EPHEMERIS_TYPE":0,"CLASSIFICATION_TYPE":"U","NORAD_CAT_ID":68326,"ELEMENT_SET_NO":999,"REV_AT_EPOCH":257,"BSTAR":-3.1363e-5,"MEAN_MOTION_DOT":-6.886e-5,"MEAN_MOTION_DDOT":0}]
